{
"type": "FeatureCollection",
"name": "agences",
"crs": { "type": "name", "properties": { "name": "urn:ogc:def:crs:OGC:1.3:CRS84" } },
"features": [
{ "type": "Feature", "properties": { "enseigne": "MC2 Le Grenier de la communaute de Lboudi", "name": "MC2 Le Grenier de la communaute de Lboudi" }, "geometry": { "type": "Point", "coordinates": [ 11.4454226, 3.9203784 ] } },
{ "type": "Feature", "properties": { "enseigne": "Afriland First bank POS", "name": "Afriland First bank POS" }, "geometry": { "type": "Point", "coordinates": [ 11.5219862, 3.8510588 ] } },
{ "type": "Feature", "properties": { "enseigne": "Afriland First Bank POS", "name": "Afriland First Bank POS" }, "geometry": { "type": "Point", "coordinates": [ 11.5190967, 3.8735127 ] } },
{ "type": "Feature", "properties": { "enseigne": "Standard Chartered", "name": "Standard Chartered" }, "geometry": { "type": "Point", "coordinates": [ 11.5178395, 3.8715198 ] } },
{ "type": "Feature", "properties": { "enseigne": "Amity Bank", "name": "Amity Bank" }, "geometry": { "type": "Point", "coordinates": [ 11.516793, 3.8642888 ] } },
{ "type": "Feature", "properties": { "enseigne": "Ecobank", "name": "Ecobank" }, "geometry": { "type": "Point", "coordinates": [ 11.5212454, 3.8603628 ] } },
{ "type": "Feature", "properties": { "enseigne": "SCB Cameroun", "name": "SCB Cameroun" }, "geometry": { "type": "Point", "coordinates": [ 11.5218784, 3.8643601 ] } },
{ "type": "Feature", "properties": { "enseigne": "ACEP", "name": "ACEP" }, "geometry": { "type": "Point", "coordinates": [ 11.5465582, 3.8637839 ] } },
{ "type": "Feature", "properties": { "enseigne": "LCL", "name": "LCL" }, "geometry": { "type": "Point", "coordinates": [ 11.5247197, 3.8692357 ] } },
{ "type": "Feature", "properties": { "enseigne": "Fogape SCB", "name": "Fogape SCB" }, "geometry": { "type": "Point", "coordinates": [ 11.520069, 3.8651219 ] } },
{ "type": "Feature", "properties": { "enseigne": "Mutuelle Epargne Crédit", "name": "Mutuelle Epargne Crédit" }, "geometry": { "type": "Point", "coordinates": [ 11.5456255, 3.8633351 ] } },
{ "type": "Feature", "properties": { "enseigne": "NDC", "name": "NDC" }, "geometry": { "type": "Point", "coordinates": [ 11.5333457, 3.8685327 ] } },
{ "type": "Feature", "properties": { "enseigne": "Agence bancaire", "name": "" }, "geometry": { "type": "Point", "coordinates": [ 11.5218166, 3.8584926 ] } },
{ "type": "Feature", "properties": { "enseigne": "Crédit Communauté Du Cameroun", "name": "Crédit Communauté Du Cameroun" }, "geometry": { "type": "Point", "coordinates": [ 11.5219515, 3.8573546 ] } },
{ "type": "Feature", "properties": { "enseigne": "Instantransfer", "name": "" }, "geometry": { "type": "Point", "coordinates": [ 11.5936439, 3.9659424 ] } },
{ "type": "Feature", "properties": { "enseigne": "Mutuelle Communautairde Developpement", "name": "Mutuelle Communautairde Developpement" }, "geometry": { "type": "Point", "coordinates": [ 11.4881092, 3.8401563 ] } },
{ "type": "Feature", "properties": { "enseigne": "SCB Cameroun", "name": "SCB Cameroun" }, "geometry": { "type": "Point", "coordinates": [ 11.4885955, 3.8407235 ] } },
{ "type": "Feature", "properties": { "enseigne": "Service centre MTN", "name": "Service centre MTN" }, "geometry": { "type": "Point", "coordinates": [ 11.4884688, 3.8405868 ] } },
{ "type": "Feature", "properties": { "enseigne": "La régionale", "name": "La régionale" }, "geometry": { "type": "Point", "coordinates": [ 11.5177446, 3.8685416 ] } },
{ "type": "Feature", "properties": { "enseigne": "societe cooperative de epargne et de credit general du cameroun", "name": "societe cooperative de epargne et de credit general du cameroun" }, "geometry": { "type": "Point", "coordinates": [ 11.4956198, 3.8678372 ] } },
{ "type": "Feature", "properties": { "enseigne": "Crédit Mutuel", "name": "Crédit Mutuel" }, "geometry": { "type": "Point", "coordinates": [ 11.5060121, 3.8714044 ] } },
{ "type": "Feature", "properties": { "enseigne": "People finance", "name": "People finance" }, "geometry": { "type": "Point", "coordinates": [ 11.5040252, 3.8627634 ] } },
{ "type": "Feature", "properties": { "enseigne": "EMY MONEY", "name": "EMY MONEY" }, "geometry": { "type": "Point", "coordinates": [ 11.4939543, 3.8631792 ] } },
{ "type": "Feature", "properties": { "enseigne": "UBA", "name": "UBA" }, "geometry": { "type": "Point", "coordinates": [ 11.5214615, 3.8505827 ] } },
{ "type": "Feature", "properties": { "enseigne": "Afriland First bank", "name": "Afriland First bank" }, "geometry": { "type": "Point", "coordinates": [ 11.52109, 3.848961 ] } },
{ "type": "Feature", "properties": { "enseigne": "Bgfi (montée anne rouge)", "name": "Bgfi (montée anne rouge)" }, "geometry": { "type": "Point", "coordinates": [ 11.5192647, 3.8690164 ] } },
{ "type": "Feature", "properties": { "enseigne": "Société Générale Cameroun", "name": "Société Générale Cameroun" }, "geometry": { "type": "Point", "coordinates": [ 11.499359, 3.8855884 ] } },
{ "type": "Feature", "properties": { "enseigne": "Societe Nationale D'investissement Du Cameroun", "name": "Societe Nationale D'investissement Du Cameroun" }, "geometry": { "type": "Point", "coordinates": [ 11.5218002, 3.8617682 ] } },
{ "type": "Feature", "properties": { "enseigne": "AFRILAND FIRST BANK", "name": "AFRILAND FIRST BANK" }, "geometry": { "type": "Point", "coordinates": [ 11.5449165, 3.8886509 ] } },
{ "type": "Feature", "properties": { "enseigne": "nfc banque", "name": "nfc banque" }, "geometry": { "type": "Point", "coordinates": [ 11.5026923, 3.8629253 ] } },
{ "type": "Feature", "properties": { "enseigne": "BEC S.A", "name": "BEC S.A" }, "geometry": { "type": "Point", "coordinates": [ 11.4985335, 3.8729439 ] } },
{ "type": "Feature", "properties": { "enseigne": "NOFIA(NOUVELLE FINANCIERE AFRICAINE)", "name": "NOFIA(NOUVELLE FINANCIERE AFRICAINE)" }, "geometry": { "type": "Point", "coordinates": [ 11.5044411, 3.8722073 ] } },
{ "type": "Feature", "properties": { "enseigne": "SCB Cameroun", "name": "SCB Cameroun" }, "geometry": { "type": "Point", "coordinates": [ 11.5007879, 3.8726241 ] } },
{ "type": "Feature", "properties": { "enseigne": "SCB", "name": "SCB" }, "geometry": { "type": "Point", "coordinates": [ 11.5153804, 3.8671662 ] } },
{ "type": "Feature", "properties": { "enseigne": "BEAC Nationale", "name": "BEAC Nationale" }, "geometry": { "type": "Point", "coordinates": [ 11.5147367, 3.8649986 ] } },
{ "type": "Feature", "properties": { "enseigne": "Afriland First Bank", "name": "Afriland First Bank" }, "geometry": { "type": "Point", "coordinates": [ 11.515135, 3.8738799 ] } },
{ "type": "Feature", "properties": { "enseigne": "Financial House", "name": "Financial House" }, "geometry": { "type": "Point", "coordinates": [ 11.518001, 3.8744198 ] } },
{ "type": "Feature", "properties": { "enseigne": "SCB", "name": "SCB" }, "geometry": { "type": "Point", "coordinates": [ 11.5176791, 3.8746419 ] } },
{ "type": "Feature", "properties": { "enseigne": "Afriland First Bank", "name": "Afriland First Bank" }, "geometry": { "type": "Point", "coordinates": [ 11.5181404, 3.8734109 ] } },
{ "type": "Feature", "properties": { "enseigne": "BICCEC", "name": "BICCEC" }, "geometry": { "type": "Point", "coordinates": [ 11.5196022, 3.8633193 ] } },
{ "type": "Feature", "properties": { "enseigne": "Afriland first bank", "name": "Afriland first bank" }, "geometry": { "type": "Point", "coordinates": [ 11.5250096, 3.8680279 ] } },
{ "type": "Feature", "properties": { "enseigne": "Banque des Etats de l'Afrique Centrale", "name": "Banque des Etats de l'Afrique Centrale" }, "geometry": { "type": "Point", "coordinates": [ 11.5234807, 3.8681644 ] } },
{ "type": "Feature", "properties": { "enseigne": "BICEC", "name": "BICEC" }, "geometry": { "type": "Point", "coordinates": [ 11.5216045, 3.8648915 ] } },
{ "type": "Feature", "properties": { "enseigne": "UBA", "name": "UBA" }, "geometry": { "type": "Point", "coordinates": [ 11.5266256, 3.8678834 ] } },
{ "type": "Feature", "properties": { "enseigne": "CCA Maché central", "name": "CCA Maché central" }, "geometry": { "type": "Point", "coordinates": [ 11.5166585, 3.8666946 ] } },
{ "type": "Feature", "properties": { "enseigne": "Banque Camerounaise des Petites et Moyennes Entreprises", "name": "Banque Camerounaise des Petites et Moyennes Entreprises" }, "geometry": { "type": "Point", "coordinates": [ 11.5182517, 3.8828708 ] } },
{ "type": "Feature", "properties": { "enseigne": "ECOBANK Hypodrome", "name": "ECOBANK Hypodrome" }, "geometry": { "type": "Point", "coordinates": [ 11.5166719, 3.8772015 ] } },
{ "type": "Feature", "properties": { "enseigne": "SG CAMEROUN", "name": "SG CAMEROUN" }, "geometry": { "type": "Point", "coordinates": [ 11.5167966, 3.876946 ] } },
{ "type": "Feature", "properties": { "enseigne": "Banque Atlantique Yaoundé", "name": "Banque Atlantique Yaoundé" }, "geometry": { "type": "Point", "coordinates": [ 11.5168959, 3.876669 ] } },
{ "type": "Feature", "properties": { "enseigne": "NFC Bank", "name": "NFC Bank" }, "geometry": { "type": "Point", "coordinates": [ 11.5161972, 3.8774932 ] } },
{ "type": "Feature", "properties": { "enseigne": "UBA (United Bank Of Africa)", "name": "UBA, Agence Hippodrome" }, "geometry": { "type": "Point", "coordinates": [ 11.5164158, 3.8778866 ] } },
{ "type": "Feature", "properties": { "enseigne": "CITI CAMEROUN", "name": "CITI CAMEROUN" }, "geometry": { "type": "Point", "coordinates": [ 11.5161006, 3.8777287 ] } },
{ "type": "Feature", "properties": { "enseigne": "UBC", "name": "UBC" }, "geometry": { "type": "Point", "coordinates": [ 11.5164533, 3.8783041 ] } },
{ "type": "Feature", "properties": { "enseigne": "Société general", "name": "Société general" }, "geometry": { "type": "Point", "coordinates": [ 11.5091376, 3.8936311 ] } },
{ "type": "Feature", "properties": { "enseigne": "Société general", "name": "Société general" }, "geometry": { "type": "Point", "coordinates": [ 11.5099262, 3.8931106 ] } },
{ "type": "Feature", "properties": { "enseigne": "Guichet automatique - afriland first", "name": "Guichet automatique - afriland first" }, "geometry": { "type": "Point", "coordinates": [ 11.5101783, 3.8926249 ] } },
{ "type": "Feature", "properties": { "enseigne": "BICEC Bastos", "name": "BICEC Bastos" }, "geometry": { "type": "Point", "coordinates": [ 11.5119117, 3.8921255 ] } },
{ "type": "Feature", "properties": { "enseigne": "Deutch company", "name": "Deutch company" }, "geometry": { "type": "Point", "coordinates": [ 11.51548, 3.8729483 ] } },
{ "type": "Feature", "properties": { "enseigne": "Guichet Éléctronique Bicec", "name": "Guichet Éléctronique Bicec" }, "geometry": { "type": "Point", "coordinates": [ 11.5422716, 3.9068492 ] } },
{ "type": "Feature", "properties": { "enseigne": "NSIA assurance", "name": "NSIA assurance" }, "geometry": { "type": "Point", "coordinates": [ 11.5194515, 3.8675833 ] } },
{ "type": "Feature", "properties": { "enseigne": "Afriland first bank", "name": "Afriland first bank" }, "geometry": { "type": "Point", "coordinates": [ 11.5181528, 3.8668533 ] } },
{ "type": "Feature", "properties": { "enseigne": "La régionale", "name": "La régionale" }, "geometry": { "type": "Point", "coordinates": [ 11.5190056, 3.8681043 ] } },
{ "type": "Feature", "properties": { "enseigne": "Ecobank Etoudi", "name": "Ecobank Etoudi" }, "geometry": { "type": "Point", "coordinates": [ 11.5219772, 3.9158976 ] } },
{ "type": "Feature", "properties": { "enseigne": "Vision Finance Odja", "name": "Vision Finance Odja" }, "geometry": { "type": "Point", "coordinates": [ 11.5225304, 3.7951012 ] } },
{ "type": "Feature", "properties": { "enseigne": "Afriland First Bank Damas", "name": "Afriland First Bank Damas" }, "geometry": { "type": "Point", "coordinates": [ 11.4895906, 3.8202918 ] } },
{ "type": "Feature", "properties": { "enseigne": "Afriland first bank", "name": "Afriland first bank" }, "geometry": { "type": "Point", "coordinates": [ 11.5400284, 3.8714946 ] } },
{ "type": "Feature", "properties": { "enseigne": "Société Générale", "name": "Société Générale" }, "geometry": { "type": "Point", "coordinates": [ 11.5213838, 3.8624339 ] } },
{ "type": "Feature", "properties": { "enseigne": "UBA", "name": "UBA" }, "geometry": { "type": "Point", "coordinates": [ 11.5168555, 3.8678902 ] } },
{ "type": "Feature", "properties": { "enseigne": "NFC Bank", "name": "NFC Bank" }, "geometry": { "type": "Point", "coordinates": [ 11.5151618, 3.8711123 ] } },
{ "type": "Feature", "properties": { "enseigne": "CEPi", "name": "CEPi" }, "geometry": { "type": "Point", "coordinates": [ 11.5181473, 3.8708689 ] } },
{ "type": "Feature", "properties": { "enseigne": "Afriland First Bank", "name": "Afriland First Bank" }, "geometry": { "type": "Point", "coordinates": [ 11.4705004, 3.8315428 ] } },
{ "type": "Feature", "properties": { "enseigne": "Société Générale", "name": "Société Générale" }, "geometry": { "type": "Point", "coordinates": [ 11.4874323, 3.8394264 ] } },
{ "type": "Feature", "properties": { "enseigne": "La Régionale Bank - Agence Nlongkak", "name": "La Régionale Bank - Agence Nlongkak" }, "geometry": { "type": "Point", "coordinates": [ 11.518137, 3.8833773 ] } },
{ "type": "Feature", "properties": { "enseigne": "Afriland First Bank", "name": "Afriland First Bank" }, "geometry": { "type": "Point", "coordinates": [ 11.4548377, 3.8725087 ] } },
{ "type": "Feature", "properties": { "enseigne": "Bange Bank Cameroun", "name": "Bange Bank Cameroun" }, "geometry": { "type": "Point", "coordinates": [ 11.5180362, 3.8708101 ] } },
{ "type": "Feature", "properties": { "enseigne": "Afriland First Bank", "name": "Afriland First Bank" }, "geometry": { "type": "Point", "coordinates": [ 11.5224658, 3.9160131 ] } },
{ "type": "Feature", "properties": { "enseigne": "SCB Cameroun", "name": "SCB Cameroun" }, "geometry": { "type": "Point", "coordinates": [ 11.5199553, 3.8666861 ] } },
{ "type": "Feature", "properties": { "enseigne": "microfinance bapccul", "name": "microfinance bapccul" }, "geometry": { "type": "Point", "coordinates": [ 11.4865678, 3.8496113 ] } },
{ "type": "Feature", "properties": { "enseigne": "microfinance unics plc", "name": "microfinance unics plc" }, "geometry": { "type": "Point", "coordinates": [ 11.4866048, 3.8497279 ] } },
{ "type": "Feature", "properties": { "enseigne": "Access Bank", "name": "Access Bank" }, "geometry": { "type": "Point", "coordinates": [ 11.520106, 3.866501 ] } },
{ "type": "Feature", "properties": { "enseigne": "Agence bancaire", "name": "" }, "geometry": { "type": "Point", "coordinates": [ 11.5014919, 3.8725699 ] } },
{ "type": "Feature", "properties": { "enseigne": "Guichet SGC", "name": "Guichet SGC" }, "geometry": { "type": "Point", "coordinates": [ 11.5202673, 3.9266174 ] } }
]
}
