{
"type": "FeatureCollection",
"name": "arrondissements",
"crs": { "type": "name", "properties": { "name": "urn:ogc:def:crs:OGC:1.3:CRS84" } },
"features": [
{ "type": "Feature", "properties": { "nom": "Yaoundé I", "niveau": 8 }, "geometry": { "type": "Polygon", "coordinates": [ [ [ 11.478302, 3.94952 ], [ 11.479246, 3.947302 ], [ 11.480249, 3.947024 ], [ 11.481069, 3.945837 ], [ 11.487049, 3.940117 ], [ 11.489799, 3.933934 ], [ 11.496233, 3.928929 ], [ 11.50076, 3.920555 ], [ 11.499368, 3.916696 ], [ 11.500762, 3.912207 ], [ 11.501877, 3.910638 ], [ 11.502805, 3.905412 ], [ 11.503285, 3.904329 ], [ 11.50454, 3.902239 ], [ 11.504707, 3.901412 ], [ 11.504568, 3.899609 ], [ 11.505109, 3.898923 ], [ 11.501011, 3.895133 ], [ 11.499462, 3.893271 ], [ 11.499035, 3.892507 ], [ 11.498814, 3.891771 ], [ 11.498762, 3.890794 ], [ 11.498881, 3.889952 ], [ 11.499491, 3.888493 ], [ 11.499841, 3.888081 ], [ 11.501044, 3.887273 ], [ 11.501729, 3.88714 ], [ 11.503845, 3.887132 ], [ 11.506343, 3.886426 ], [ 11.50874, 3.884906 ], [ 11.511505, 3.883831 ], [ 11.512277, 3.883278 ], [ 11.513171, 3.881176 ], [ 11.512958, 3.880912 ], [ 11.513339, 3.879754 ], [ 11.514112, 3.878205 ], [ 11.513606, 3.875119 ], [ 11.513709, 3.87478 ], [ 11.513544, 3.874502 ], [ 11.514676, 3.871515 ], [ 11.514764, 3.870779 ], [ 11.514603, 3.869935 ], [ 11.513904, 3.869015 ], [ 11.51363, 3.867671 ], [ 11.513215, 3.866431 ], [ 11.515332, 3.866137 ], [ 11.515676, 3.865713 ], [ 11.520489, 3.861428 ], [ 11.521046, 3.861748 ], [ 11.522916, 3.863511 ], [ 11.523881, 3.863638 ], [ 11.524135, 3.863833 ], [ 11.525074, 3.866044 ], [ 11.525334, 3.866121 ], [ 11.525646, 3.866706 ], [ 11.525921, 3.869834 ], [ 11.527972, 3.874541 ], [ 11.52834, 3.875145 ], [ 11.528797, 3.875602 ], [ 11.530475, 3.876865 ], [ 11.531855, 3.878871 ], [ 11.532126, 3.880021 ], [ 11.531695, 3.884296 ], [ 11.531797, 3.884878 ], [ 11.531697, 3.885803 ], [ 11.532543, 3.890531 ], [ 11.533576, 3.89229 ], [ 11.534941, 3.894251 ], [ 11.535693, 3.896055 ], [ 11.537166, 3.902644 ], [ 11.537179, 3.903564 ], [ 11.536842, 3.905911 ], [ 11.536932, 3.907225 ], [ 11.537284, 3.908268 ], [ 11.538939, 3.910965 ], [ 11.539405, 3.912462 ], [ 11.539361, 3.913927 ], [ 11.538733, 3.916681 ], [ 11.538623, 3.922086 ], [ 11.538977, 3.922143 ], [ 11.539201, 3.922467 ], [ 11.539263, 3.923284 ], [ 11.541438, 3.926331 ], [ 11.542107, 3.929556 ], [ 11.542497, 3.930643 ], [ 11.54292, 3.93116 ], [ 11.543604, 3.931487 ], [ 11.546449, 3.93114 ], [ 11.547199, 3.93125 ], [ 11.547726, 3.931477 ], [ 11.548902, 3.932334 ], [ 11.549695, 3.932405 ], [ 11.55089, 3.930728 ], [ 11.55153, 3.930174 ], [ 11.55269, 3.929649 ], [ 11.553472, 3.929585 ], [ 11.553779, 3.929684 ], [ 11.554405, 3.930524 ], [ 11.555026, 3.930792 ], [ 11.557646, 3.930195 ], [ 11.558316, 3.930376 ], [ 11.559023, 3.930245 ], [ 11.559662, 3.930575 ], [ 11.560262, 3.930416 ], [ 11.561365, 3.930386 ], [ 11.562177, 3.930548 ], [ 11.562594, 3.930396 ], [ 11.562818, 3.930154 ], [ 11.562995, 3.930191 ], [ 11.56307, 3.930384 ], [ 11.564256, 3.931184 ], [ 11.56491, 3.931367 ], [ 11.56555, 3.932012 ], [ 11.565911, 3.931858 ], [ 11.56653, 3.932156 ], [ 11.567629, 3.932372 ], [ 11.568643, 3.933137 ], [ 11.568885, 3.933197 ], [ 11.568846, 3.933349 ], [ 11.568982, 3.93351 ], [ 11.569413, 3.933774 ], [ 11.569617, 3.934469 ], [ 11.569405, 3.934976 ], [ 11.56958, 3.935417 ], [ 11.570312, 3.935511 ], [ 11.57032, 3.936054 ], [ 11.570564, 3.936493 ], [ 11.570668, 3.936631 ], [ 11.570909, 3.936617 ], [ 11.571136, 3.937309 ], [ 11.571632, 3.937525 ], [ 11.571814, 3.937987 ], [ 11.572342, 3.937918 ], [ 11.572398, 3.938079 ], [ 11.572657, 3.938004 ], [ 11.572913, 3.9381 ], [ 11.572897, 3.938379 ], [ 11.57257, 3.938719 ], [ 11.572574, 3.939074 ], [ 11.57297, 3.939297 ], [ 11.572955, 3.939639 ], [ 11.573476, 3.939736 ], [ 11.573858, 3.940154 ], [ 11.574196, 3.940261 ], [ 11.574547, 3.941034 ], [ 11.574787, 3.94113 ], [ 11.574798, 3.941299 ], [ 11.574125, 3.941822 ], [ 11.573851, 3.941762 ], [ 11.573658, 3.941909 ], [ 11.573348, 3.941742 ], [ 11.573299, 3.942204 ], [ 11.572887, 3.942332 ], [ 11.572474, 3.943322 ], [ 11.570862, 3.944002 ], [ 11.570612, 3.944299 ], [ 11.569817, 3.944677 ], [ 11.569639, 3.944874 ], [ 11.569537, 3.945302 ], [ 11.569322, 3.945463 ], [ 11.568743, 3.94561 ], [ 11.568088, 3.945228 ], [ 11.566907, 3.945821 ], [ 11.566529, 3.946313 ], [ 11.565621, 3.946506 ], [ 11.565476, 3.946404 ], [ 11.565476, 3.946185 ], [ 11.565224, 3.946161 ], [ 11.564588, 3.946316 ], [ 11.563334, 3.946296 ], [ 11.56225, 3.946637 ], [ 11.561957, 3.946809 ], [ 11.561948, 3.946988 ], [ 11.561442, 3.947013 ], [ 11.56126, 3.946846 ], [ 11.56116, 3.94706 ], [ 11.5609, 3.947087 ], [ 11.561003, 3.947285 ], [ 11.560916, 3.947391 ], [ 11.560699, 3.94733 ], [ 11.560302, 3.948072 ], [ 11.560222, 3.948746 ], [ 11.560106, 3.948877 ], [ 11.560173, 3.948979 ], [ 11.559945, 3.949177 ], [ 11.559752, 3.949642 ], [ 11.559149, 3.950137 ], [ 11.559245, 3.950314 ], [ 11.559087, 3.950598 ], [ 11.55942, 3.950616 ], [ 11.559186, 3.950924 ], [ 11.559342, 3.95105 ], [ 11.559141, 3.951245 ], [ 11.559256, 3.951614 ], [ 11.55913, 3.95185 ], [ 11.559237, 3.952069 ], [ 11.559074, 3.952195 ], [ 11.558945, 3.952136 ], [ 11.558508, 3.952497 ], [ 11.55817, 3.952307 ], [ 11.558089, 3.952369 ], [ 11.558084, 3.95272 ], [ 11.557851, 3.953033 ], [ 11.557977, 3.953479 ], [ 11.557735, 3.953512 ], [ 11.55795, 3.953731 ], [ 11.557716, 3.95395 ], [ 11.557813, 3.954411 ], [ 11.557507, 3.954764 ], [ 11.55762, 3.955002 ], [ 11.558096, 3.955347 ], [ 11.557751, 3.955545 ], [ 11.557565, 3.956358 ], [ 11.557855, 3.957697 ], [ 11.55824, 3.958547 ], [ 11.55818, 3.958994 ], [ 11.558628, 3.959144 ], [ 11.558628, 3.959995 ], [ 11.558943, 3.960187 ], [ 11.558807, 3.960377 ], [ 11.558873, 3.960704 ], [ 11.558428, 3.961112 ], [ 11.558478, 3.961373 ], [ 11.558315, 3.961619 ], [ 11.558779, 3.961974 ], [ 11.559099, 3.961787 ], [ 11.559052, 3.961629 ], [ 11.559193, 3.961619 ], [ 11.559296, 3.962045 ], [ 11.559809, 3.962286 ], [ 11.55946, 3.963265 ], [ 11.559645, 3.963998 ], [ 11.559326, 3.964485 ], [ 11.558162, 3.963891 ], [ 11.557628, 3.963407 ], [ 11.557671, 3.963179 ], [ 11.555901, 3.961245 ], [ 11.555096, 3.960675 ], [ 11.554881, 3.960073 ], [ 11.554157, 3.959749 ], [ 11.553476, 3.959243 ], [ 11.552596, 3.957673 ], [ 11.551641, 3.956501 ], [ 11.55104, 3.956369 ], [ 11.550756, 3.955973 ], [ 11.549431, 3.954997 ], [ 11.548636, 3.955278 ], [ 11.548476, 3.955165 ], [ 11.548447, 3.954859 ], [ 11.547788, 3.954921 ], [ 11.547636, 3.954828 ], [ 11.547623, 3.954499 ], [ 11.547371, 3.954384 ], [ 11.547264, 3.954492 ], [ 11.547177, 3.954304 ], [ 11.54673, 3.9541 ], [ 11.546609, 3.953587 ], [ 11.545978, 3.953304 ], [ 11.545083, 3.953702 ], [ 11.544863, 3.953691 ], [ 11.544764, 3.953509 ], [ 11.544308, 3.953471 ], [ 11.544187, 3.953592 ], [ 11.543664, 3.953623 ], [ 11.54308, 3.953996 ], [ 11.54308, 3.954285 ], [ 11.542498, 3.954183 ], [ 11.542311, 3.954324 ], [ 11.541478, 3.954357 ], [ 11.540837, 3.954245 ], [ 11.540819, 3.954856 ], [ 11.540418, 3.955868 ], [ 11.540126, 3.955921 ], [ 11.539811, 3.956191 ], [ 11.539485, 3.958242 ], [ 11.539314, 3.95855 ], [ 11.53908, 3.958588 ], [ 11.538865, 3.959122 ], [ 11.538732, 3.959714 ], [ 11.538933, 3.960043 ], [ 11.538828, 3.960534 ], [ 11.538016, 3.960897 ], [ 11.537672, 3.960787 ], [ 11.536787, 3.960841 ], [ 11.535143, 3.961394 ], [ 11.533912, 3.961646 ], [ 11.533641, 3.961601 ], [ 11.533083, 3.96117 ], [ 11.532584, 3.961167 ], [ 11.532265, 3.961539 ], [ 11.531289, 3.962092 ], [ 11.530055, 3.963236 ], [ 11.528998, 3.963993 ], [ 11.528536, 3.965526 ], [ 11.524627, 3.967431 ], [ 11.522716, 3.967512 ], [ 11.51381, 3.969196 ], [ 11.512478, 3.968451 ], [ 11.510949, 3.96839 ], [ 11.5099, 3.96754 ], [ 11.508828, 3.967705 ], [ 11.508131, 3.96725 ], [ 11.50692, 3.967091 ], [ 11.505797, 3.96649 ], [ 11.502059, 3.966578 ], [ 11.50029, 3.966047 ], [ 11.50024, 3.963896 ], [ 11.490899, 3.963401 ], [ 11.489089, 3.961868 ], [ 11.487511, 3.959291 ], [ 11.484954, 3.95747 ], [ 11.482291, 3.957728 ], [ 11.479142, 3.951683 ], [ 11.478302, 3.94952 ] ] ] } },
{ "type": "Feature", "properties": { "nom": "Yaoundé II", "niveau": 8 }, "geometry": { "type": "Polygon", "coordinates": [ [ [ 11.46585, 3.909042 ], [ 11.467507, 3.907924 ], [ 11.467339, 3.907395 ], [ 11.467372, 3.906796 ], [ 11.468049, 3.905797 ], [ 11.468495, 3.904441 ], [ 11.468376, 3.903263 ], [ 11.469627, 3.90098 ], [ 11.469754, 3.899442 ], [ 11.470057, 3.898337 ], [ 11.472031, 3.892929 ], [ 11.472885, 3.893066 ], [ 11.47332, 3.893274 ], [ 11.47388, 3.893234 ], [ 11.474527, 3.893362 ], [ 11.474964, 3.894025 ], [ 11.474521, 3.89272 ], [ 11.475711, 3.890641 ], [ 11.477421, 3.89014 ], [ 11.478083, 3.889698 ], [ 11.478745, 3.888742 ], [ 11.479996, 3.887447 ], [ 11.480447, 3.885417 ], [ 11.480604, 3.883914 ], [ 11.48148, 3.882949 ], [ 11.481818, 3.882067 ], [ 11.481725, 3.881718 ], [ 11.482308, 3.880646 ], [ 11.482453, 3.880576 ], [ 11.482652, 3.87928 ], [ 11.482053, 3.879209 ], [ 11.482225, 3.87894 ], [ 11.482723, 3.878641 ], [ 11.482963, 3.878123 ], [ 11.483415, 3.878327 ], [ 11.483624, 3.877043 ], [ 11.483846, 3.876852 ], [ 11.484086, 3.875875 ], [ 11.484664, 3.87492 ], [ 11.484452, 3.872342 ], [ 11.484262, 3.871293 ], [ 11.483923, 3.870738 ], [ 11.484738, 3.870455 ], [ 11.484986, 3.870139 ], [ 11.485229, 3.870046 ], [ 11.486316, 3.869991 ], [ 11.489234, 3.871372 ], [ 11.489493, 3.871638 ], [ 11.49008, 3.871586 ], [ 11.492717, 3.872019 ], [ 11.493302, 3.871988 ], [ 11.49462, 3.871567 ], [ 11.495021, 3.87159 ], [ 11.497553, 3.872368 ], [ 11.498348, 3.872772 ], [ 11.499265, 3.872967 ], [ 11.504144, 3.872373 ], [ 11.505723, 3.871789 ], [ 11.507901, 3.870042 ], [ 11.51096, 3.868562 ], [ 11.512023, 3.867714 ], [ 11.512303, 3.867638 ], [ 11.513215, 3.866431 ], [ 11.51363, 3.867671 ], [ 11.513904, 3.869015 ], [ 11.514603, 3.869935 ], [ 11.514764, 3.870779 ], [ 11.514676, 3.871515 ], [ 11.513544, 3.874502 ], [ 11.513709, 3.87478 ], [ 11.513606, 3.875119 ], [ 11.514112, 3.878205 ], [ 11.513339, 3.879754 ], [ 11.512958, 3.880912 ], [ 11.513171, 3.881176 ], [ 11.512405, 3.883108 ], [ 11.511982, 3.883565 ], [ 11.511505, 3.883831 ], [ 11.50874, 3.884906 ], [ 11.506343, 3.886426 ], [ 11.503845, 3.887132 ], [ 11.501729, 3.88714 ], [ 11.501044, 3.887273 ], [ 11.499841, 3.888081 ], [ 11.499491, 3.888493 ], [ 11.498881, 3.889952 ], [ 11.498762, 3.890794 ], [ 11.498814, 3.891771 ], [ 11.499035, 3.892507 ], [ 11.499462, 3.893271 ], [ 11.501011, 3.895133 ], [ 11.505109, 3.898923 ], [ 11.504568, 3.899609 ], [ 11.504707, 3.901412 ], [ 11.50454, 3.902239 ], [ 11.503285, 3.904329 ], [ 11.502805, 3.905412 ], [ 11.501877, 3.910638 ], [ 11.500762, 3.912207 ], [ 11.499368, 3.916696 ], [ 11.50076, 3.920555 ], [ 11.496233, 3.928929 ], [ 11.489799, 3.933934 ], [ 11.487049, 3.940117 ], [ 11.481069, 3.945837 ], [ 11.480249, 3.947024 ], [ 11.479246, 3.947302 ], [ 11.478644, 3.946701 ], [ 11.477904, 3.945037 ], [ 11.476807, 3.94394 ], [ 11.476515, 3.942333 ], [ 11.477511, 3.940514 ], [ 11.476652, 3.938697 ], [ 11.476595, 3.936879 ], [ 11.476883, 3.935969 ], [ 11.476912, 3.935278 ], [ 11.476457, 3.934619 ], [ 11.476026, 3.930944 ], [ 11.476705, 3.929683 ], [ 11.476775, 3.925279 ], [ 11.476407, 3.923236 ], [ 11.474968, 3.921129 ], [ 11.475873, 3.918461 ], [ 11.475405, 3.917691 ], [ 11.472903, 3.915859 ], [ 11.472099, 3.915337 ], [ 11.470496, 3.914784 ], [ 11.469977, 3.913632 ], [ 11.469435, 3.913026 ], [ 11.467568, 3.912346 ], [ 11.467447, 3.910418 ], [ 11.467082, 3.909469 ], [ 11.46585, 3.909042 ] ] ] } },
{ "type": "Feature", "properties": { "nom": "Yaoundé III", "niveau": 8 }, "geometry": { "type": "Polygon", "coordinates": [ [ [ 11.421696, 3.720674 ], [ 11.427191, 3.716506 ], [ 11.433562, 3.713403 ], [ 11.436232, 3.717028 ], [ 11.438813, 3.718418 ], [ 11.443708, 3.716038 ], [ 11.446794, 3.717348 ], [ 11.449298, 3.717243 ], [ 11.451209, 3.716223 ], [ 11.452276, 3.71887 ], [ 11.4525, 3.720197 ], [ 11.452108, 3.72239 ], [ 11.452125, 3.723075 ], [ 11.454121, 3.722907 ], [ 11.454224, 3.723513 ], [ 11.45456, 3.724309 ], [ 11.454946, 3.724837 ], [ 11.455723, 3.725417 ], [ 11.456057, 3.725872 ], [ 11.456014, 3.726274 ], [ 11.45651, 3.727298 ], [ 11.458525, 3.730589 ], [ 11.458863, 3.730897 ], [ 11.458782, 3.731251 ], [ 11.458942, 3.731691 ], [ 11.459196, 3.731886 ], [ 11.45988, 3.732935 ], [ 11.466086, 3.734967 ], [ 11.467176, 3.736996 ], [ 11.467931, 3.737669 ], [ 11.469467, 3.737981 ], [ 11.472205, 3.737341 ], [ 11.474637, 3.737485 ], [ 11.474984, 3.737677 ], [ 11.475407, 3.73751 ], [ 11.477256, 3.739073 ], [ 11.478418, 3.740239 ], [ 11.479306, 3.740835 ], [ 11.480038, 3.741731 ], [ 11.482423, 3.743591 ], [ 11.484091, 3.744718 ], [ 11.484554, 3.745554 ], [ 11.48457, 3.74648 ], [ 11.484722, 3.746711 ], [ 11.485959, 3.747699 ], [ 11.487085, 3.748307 ], [ 11.487264, 3.748752 ], [ 11.487646, 3.749212 ], [ 11.489733, 3.750664 ], [ 11.492178, 3.753881 ], [ 11.492894, 3.755616 ], [ 11.494582, 3.756585 ], [ 11.496098, 3.756943 ], [ 11.49782, 3.756926 ], [ 11.501484, 3.756705 ], [ 11.503079, 3.756282 ], [ 11.503475, 3.756685 ], [ 11.503429, 3.757355 ], [ 11.503225, 3.757752 ], [ 11.502925, 3.757788 ], [ 11.502409, 3.757522 ], [ 11.502083, 3.757857 ], [ 11.501566, 3.757893 ], [ 11.501402, 3.758267 ], [ 11.500922, 3.75834 ], [ 11.500527, 3.758586 ], [ 11.5, 3.759246 ], [ 11.499247, 3.758761 ], [ 11.498993, 3.75879 ], [ 11.498241, 3.760025 ], [ 11.498012, 3.760878 ], [ 11.498379, 3.762217 ], [ 11.498543, 3.762262 ], [ 11.499318, 3.761927 ], [ 11.499495, 3.762191 ], [ 11.499477, 3.762418 ], [ 11.498849, 3.76328 ], [ 11.498764, 3.763651 ], [ 11.498848, 3.763848 ], [ 11.499445, 3.764206 ], [ 11.499551, 3.76608 ], [ 11.499433, 3.766395 ], [ 11.49915, 3.766652 ], [ 11.499267, 3.767086 ], [ 11.499106, 3.768016 ], [ 11.497921, 3.770232 ], [ 11.497656, 3.770302 ], [ 11.497224, 3.770673 ], [ 11.496782, 3.771485 ], [ 11.49654, 3.771646 ], [ 11.492235, 3.771673 ], [ 11.490285, 3.773147 ], [ 11.489382, 3.773161 ], [ 11.488922, 3.773339 ], [ 11.488346, 3.773984 ], [ 11.488017, 3.775268 ], [ 11.487333, 3.776567 ], [ 11.487162, 3.77667 ], [ 11.487506, 3.777334 ], [ 11.487847, 3.77727 ], [ 11.488245, 3.776732 ], [ 11.488225, 3.777239 ], [ 11.488436, 3.777579 ], [ 11.488321, 3.777749 ], [ 11.48838, 3.778412 ], [ 11.489551, 3.779177 ], [ 11.489494, 3.779664 ], [ 11.489832, 3.779744 ], [ 11.489744, 3.780298 ], [ 11.489937, 3.780464 ], [ 11.491223, 3.780614 ], [ 11.491713, 3.78092 ], [ 11.491841, 3.78129 ], [ 11.491766, 3.782073 ], [ 11.492846, 3.783109 ], [ 11.49292, 3.784343 ], [ 11.493209, 3.785156 ], [ 11.493134, 3.785412 ], [ 11.493263, 3.786751 ], [ 11.493702, 3.786791 ], [ 11.493886, 3.786683 ], [ 11.494321, 3.786844 ], [ 11.494822, 3.787329 ], [ 11.495214, 3.788159 ], [ 11.495567, 3.788413 ], [ 11.495939, 3.788454 ], [ 11.496308, 3.789134 ], [ 11.496695, 3.789139 ], [ 11.496777, 3.78934 ], [ 11.497621, 3.789869 ], [ 11.498008, 3.790321 ], [ 11.498335, 3.791065 ], [ 11.498625, 3.791269 ], [ 11.498963, 3.791793 ], [ 11.499365, 3.79284 ], [ 11.499647, 3.793011 ], [ 11.501401, 3.793265 ], [ 11.501988, 3.793565 ], [ 11.503072, 3.79372 ], [ 11.509197, 3.80131 ], [ 11.509282, 3.80152 ], [ 11.509153, 3.802921 ], [ 11.511175, 3.807211 ], [ 11.510712, 3.809088 ], [ 11.509609, 3.809484 ], [ 11.509071, 3.810003 ], [ 11.508482, 3.811193 ], [ 11.508506, 3.811968 ], [ 11.509349, 3.81349 ], [ 11.509615, 3.814583 ], [ 11.509828, 3.814803 ], [ 11.510856, 3.815217 ], [ 11.511009, 3.815482 ], [ 11.511432, 3.816771 ], [ 11.51291, 3.820031 ], [ 11.512878, 3.821083 ], [ 11.511394, 3.824107 ], [ 11.511501, 3.824541 ], [ 11.513039, 3.826572 ], [ 11.512996, 3.827146 ], [ 11.511935, 3.828848 ], [ 11.511923, 3.829389 ], [ 11.512244, 3.829897 ], [ 11.512588, 3.830076 ], [ 11.514696, 3.830029 ], [ 11.514938, 3.830132 ], [ 11.515708, 3.831018 ], [ 11.51552, 3.83184 ], [ 11.516911, 3.832052 ], [ 11.51724, 3.832226 ], [ 11.517491, 3.832733 ], [ 11.517468, 3.833019 ], [ 11.517122, 3.833372 ], [ 11.517356, 3.834677 ], [ 11.516958, 3.835016 ], [ 11.516848, 3.835293 ], [ 11.516663, 3.835252 ], [ 11.516477, 3.834927 ], [ 11.516058, 3.834642 ], [ 11.515218, 3.834333 ], [ 11.514797, 3.833919 ], [ 11.51401, 3.834701 ], [ 11.513038, 3.837117 ], [ 11.512665, 3.838945 ], [ 11.513341, 3.841477 ], [ 11.516207, 3.847328 ], [ 11.516259, 3.847518 ], [ 11.515915, 3.848794 ], [ 11.515916, 3.849436 ], [ 11.517157, 3.850436 ], [ 11.519051, 3.851624 ], [ 11.520303, 3.852108 ], [ 11.521056, 3.853068 ], [ 11.521378, 3.854404 ], [ 11.521153, 3.857836 ], [ 11.521279, 3.859033 ], [ 11.521222, 3.860116 ], [ 11.521514, 3.860511 ], [ 11.515676, 3.865713 ], [ 11.515332, 3.866137 ], [ 11.513215, 3.866431 ], [ 11.512303, 3.867638 ], [ 11.512023, 3.867714 ], [ 11.51096, 3.868562 ], [ 11.509986, 3.869073 ], [ 11.50823, 3.868505 ], [ 11.505662, 3.868677 ], [ 11.505011, 3.868389 ], [ 11.50476, 3.868024 ], [ 11.50407, 3.864965 ], [ 11.504105, 3.864485 ], [ 11.50455, 3.863186 ], [ 11.50406, 3.862427 ], [ 11.50035, 3.86303 ], [ 11.498822, 3.863578 ], [ 11.496554, 3.864019 ], [ 11.495471, 3.863859 ], [ 11.494942, 3.863627 ], [ 11.49419, 3.863001 ], [ 11.493578, 3.862017 ], [ 11.493388, 3.861484 ], [ 11.49319, 3.859348 ], [ 11.492472, 3.857238 ], [ 11.491582, 3.85622 ], [ 11.489971, 3.855092 ], [ 11.488037, 3.852406 ], [ 11.488814, 3.851907 ], [ 11.490129, 3.851566 ], [ 11.490278, 3.851229 ], [ 11.489659, 3.850924 ], [ 11.489843, 3.850599 ], [ 11.489081, 3.849972 ], [ 11.488229, 3.848789 ], [ 11.488227, 3.847911 ], [ 11.488107, 3.847553 ], [ 11.488306, 3.846983 ], [ 11.488751, 3.84664 ], [ 11.488864, 3.846385 ], [ 11.489681, 3.845906 ], [ 11.49055, 3.845581 ], [ 11.490903, 3.84505 ], [ 11.491325, 3.844729 ], [ 11.491847, 3.843818 ], [ 11.491974, 3.84336 ], [ 11.491986, 3.842011 ], [ 11.491676, 3.841741 ], [ 11.49132, 3.841068 ], [ 11.490626, 3.840376 ], [ 11.490941, 3.839391 ], [ 11.491047, 3.837919 ], [ 11.490739, 3.837328 ], [ 11.490527, 3.836329 ], [ 11.490232, 3.836147 ], [ 11.489997, 3.835431 ], [ 11.489624, 3.834911 ], [ 11.489181, 3.834631 ], [ 11.48852, 3.834441 ], [ 11.488163, 3.834062 ], [ 11.488161, 3.833831 ], [ 11.487916, 3.833623 ], [ 11.487707, 3.833188 ], [ 11.486773, 3.832362 ], [ 11.486655, 3.831634 ], [ 11.486244, 3.83146 ], [ 11.485947, 3.831493 ], [ 11.485845, 3.830595 ], [ 11.4861, 3.830049 ], [ 11.485157, 3.828701 ], [ 11.485153, 3.829022 ], [ 11.48422, 3.830031 ], [ 11.483957, 3.830601 ], [ 11.483465, 3.831202 ], [ 11.48266, 3.831445 ], [ 11.482105, 3.832047 ], [ 11.480671, 3.832866 ], [ 11.479978, 3.832885 ], [ 11.479724, 3.832736 ], [ 11.479146, 3.83268 ], [ 11.477585, 3.832872 ], [ 11.47621, 3.833225 ], [ 11.475947, 3.833055 ], [ 11.475657, 3.833101 ], [ 11.473731, 3.832108 ], [ 11.47322, 3.831179 ], [ 11.473445, 3.829394 ], [ 11.474683, 3.827207 ], [ 11.474948, 3.826937 ], [ 11.475282, 3.826826 ], [ 11.475753, 3.826075 ], [ 11.476066, 3.824927 ], [ 11.47573, 3.824684 ], [ 11.476347, 3.823723 ], [ 11.476603, 3.823713 ], [ 11.47789, 3.822656 ], [ 11.478307, 3.822095 ], [ 11.479251, 3.821623 ], [ 11.479397, 3.82121 ], [ 11.480048, 3.820606 ], [ 11.480376, 3.820589 ], [ 11.480865, 3.820209 ], [ 11.481094, 3.819488 ], [ 11.481064, 3.819003 ], [ 11.481373, 3.818147 ], [ 11.481311, 3.817876 ], [ 11.481528, 3.817662 ], [ 11.481767, 3.816779 ], [ 11.482014, 3.81675 ], [ 11.482634, 3.816108 ], [ 11.482754, 3.815114 ], [ 11.482586, 3.814967 ], [ 11.483393, 3.813709 ], [ 11.483543, 3.813018 ], [ 11.483663, 3.812906 ], [ 11.483949, 3.812929 ], [ 11.484149, 3.812677 ], [ 11.484331, 3.81274 ], [ 11.484305, 3.812448 ], [ 11.484471, 3.812421 ], [ 11.484697, 3.812078 ], [ 11.485047, 3.811941 ], [ 11.485005, 3.811568 ], [ 11.485259, 3.811362 ], [ 11.484841, 3.810594 ], [ 11.485172, 3.810344 ], [ 11.485204, 3.809609 ], [ 11.485387, 3.809523 ], [ 11.485214, 3.809121 ], [ 11.48538, 3.808997 ], [ 11.485573, 3.809056 ], [ 11.48597, 3.808371 ], [ 11.485691, 3.807793 ], [ 11.485444, 3.807706 ], [ 11.485278, 3.806939 ], [ 11.485522, 3.806739 ], [ 11.485987, 3.805662 ], [ 11.48594, 3.805266 ], [ 11.486097, 3.805114 ], [ 11.486548, 3.805053 ], [ 11.486709, 3.804561 ], [ 11.48671, 3.803828 ], [ 11.486527, 3.80338 ], [ 11.486759, 3.803011 ], [ 11.481554, 3.798438 ], [ 11.4794, 3.796905 ], [ 11.477988, 3.796114 ], [ 11.465424, 3.790735 ], [ 11.447898, 3.779888 ], [ 11.446513, 3.776416 ], [ 11.448268, 3.772667 ], [ 11.448744, 3.770137 ], [ 11.446338, 3.765906 ], [ 11.43915, 3.765979 ], [ 11.436568, 3.763282 ], [ 11.437043, 3.758898 ], [ 11.43221, 3.757778 ], [ 11.428776, 3.755728 ], [ 11.428463, 3.752827 ], [ 11.428024, 3.751131 ], [ 11.426032, 3.74692 ], [ 11.425221, 3.744178 ], [ 11.424454, 3.740289 ], [ 11.424792, 3.735584 ], [ 11.427062, 3.733516 ], [ 11.427424, 3.733037 ], [ 11.427438, 3.730414 ], [ 11.426115, 3.728435 ], [ 11.422974, 3.725613 ], [ 11.421696, 3.720674 ] ] ] } },
{ "type": "Feature", "properties": { "nom": "Yaoundé IV", "niveau": 8 }, "geometry": { "type": "Polygon", "coordinates": [ [ [ 11.487162, 3.77667 ], [ 11.487333, 3.776567 ], [ 11.488017, 3.775268 ], [ 11.488346, 3.773984 ], [ 11.488922, 3.773339 ], [ 11.489382, 3.773161 ], [ 11.490285, 3.773147 ], [ 11.492235, 3.771673 ], [ 11.49654, 3.771646 ], [ 11.496782, 3.771485 ], [ 11.497224, 3.770673 ], [ 11.497656, 3.770302 ], [ 11.497921, 3.770232 ], [ 11.499106, 3.768016 ], [ 11.499267, 3.767086 ], [ 11.49915, 3.766652 ], [ 11.499433, 3.766395 ], [ 11.499551, 3.76608 ], [ 11.499445, 3.764206 ], [ 11.498848, 3.763848 ], [ 11.498764, 3.763651 ], [ 11.498948, 3.763102 ], [ 11.499477, 3.762418 ], [ 11.499466, 3.762072 ], [ 11.499318, 3.761927 ], [ 11.498543, 3.762262 ], [ 11.498379, 3.762217 ], [ 11.498278, 3.761556 ], [ 11.498029, 3.761036 ], [ 11.498094, 3.760401 ], [ 11.498993, 3.75879 ], [ 11.499247, 3.758761 ], [ 11.5, 3.759246 ], [ 11.500527, 3.758586 ], [ 11.500922, 3.75834 ], [ 11.501402, 3.758267 ], [ 11.501566, 3.757893 ], [ 11.502083, 3.757857 ], [ 11.502409, 3.757522 ], [ 11.502925, 3.757788 ], [ 11.503225, 3.757752 ], [ 11.503429, 3.757355 ], [ 11.503475, 3.756685 ], [ 11.503136, 3.756236 ], [ 11.503821, 3.756158 ], [ 11.505135, 3.755355 ], [ 11.506422, 3.755441 ], [ 11.506735, 3.755293 ], [ 11.507143, 3.755319 ], [ 11.507515, 3.754794 ], [ 11.508245, 3.754672 ], [ 11.508579, 3.754493 ], [ 11.509058, 3.754486 ], [ 11.509477, 3.754134 ], [ 11.509838, 3.754393 ], [ 11.510308, 3.754288 ], [ 11.511012, 3.754646 ], [ 11.51142, 3.753901 ], [ 11.51192, 3.753379 ], [ 11.512412, 3.753686 ], [ 11.512664, 3.753582 ], [ 11.512823, 3.752177 ], [ 11.513222, 3.751994 ], [ 11.513782, 3.751995 ], [ 11.514047, 3.751872 ], [ 11.514651, 3.751857 ], [ 11.515148, 3.752174 ], [ 11.515764, 3.752812 ], [ 11.515924, 3.753323 ], [ 11.516294, 3.753224 ], [ 11.516645, 3.753312 ], [ 11.51759, 3.753965 ], [ 11.518109, 3.754016 ], [ 11.518589, 3.754272 ], [ 11.518692, 3.754564 ], [ 11.518966, 3.7547 ], [ 11.519708, 3.753891 ], [ 11.520284, 3.753957 ], [ 11.520905, 3.753835 ], [ 11.521577, 3.754495 ], [ 11.522032, 3.754696 ], [ 11.522331, 3.754499 ], [ 11.523129, 3.754291 ], [ 11.523446, 3.753778 ], [ 11.523491, 3.753455 ], [ 11.52409, 3.753047 ], [ 11.524268, 3.75311 ], [ 11.524284, 3.753254 ], [ 11.523896, 3.753845 ], [ 11.523988, 3.754019 ], [ 11.524541, 3.753908 ], [ 11.524791, 3.753612 ], [ 11.524546, 3.754554 ], [ 11.524685, 3.755116 ], [ 11.523875, 3.755753 ], [ 11.523977, 3.756106 ], [ 11.5245, 3.75658 ], [ 11.524146, 3.757645 ], [ 11.524318, 3.758148 ], [ 11.524795, 3.758378 ], [ 11.524774, 3.758753 ], [ 11.524468, 3.758756 ], [ 11.52435, 3.759077 ], [ 11.524639, 3.759685 ], [ 11.524798, 3.759711 ], [ 11.525211, 3.760351 ], [ 11.525727, 3.760229 ], [ 11.525881, 3.760509 ], [ 11.526159, 3.760221 ], [ 11.526502, 3.760248 ], [ 11.526996, 3.760415 ], [ 11.527111, 3.760611 ], [ 11.528203, 3.761276 ], [ 11.528485, 3.761566 ], [ 11.52842, 3.762076 ], [ 11.528724, 3.762106 ], [ 11.529154, 3.762598 ], [ 11.529508, 3.762523 ], [ 11.529665, 3.762704 ], [ 11.529698, 3.762845 ], [ 11.529332, 3.763027 ], [ 11.52944, 3.763421 ], [ 11.529735, 3.763661 ], [ 11.5299, 3.764241 ], [ 11.530195, 3.76435 ], [ 11.530248, 3.764558 ], [ 11.530012, 3.764874 ], [ 11.529872, 3.765436 ], [ 11.529889, 3.767551 ], [ 11.529709, 3.767868 ], [ 11.530049, 3.769392 ], [ 11.530173, 3.771319 ], [ 11.530552, 3.77236 ], [ 11.530419, 3.773783 ], [ 11.530135, 3.774804 ], [ 11.5304, 3.775802 ], [ 11.53067, 3.776007 ], [ 11.53076, 3.776417 ], [ 11.531175, 3.777076 ], [ 11.530783, 3.777458 ], [ 11.530889, 3.777887 ], [ 11.530723, 3.778695 ], [ 11.531017, 3.779166 ], [ 11.531283, 3.780186 ], [ 11.531252, 3.781251 ], [ 11.531382, 3.782164 ], [ 11.531174, 3.782678 ], [ 11.531714, 3.783698 ], [ 11.531707, 3.784403 ], [ 11.531947, 3.784741 ], [ 11.531939, 3.785569 ], [ 11.532274, 3.785778 ], [ 11.532533, 3.786301 ], [ 11.534219, 3.787193 ], [ 11.53436, 3.787466 ], [ 11.534627, 3.787589 ], [ 11.534786, 3.788262 ], [ 11.535455, 3.789534 ], [ 11.535382, 3.790634 ], [ 11.53579, 3.792056 ], [ 11.535758, 3.793303 ], [ 11.536299, 3.79409 ], [ 11.536126, 3.795341 ], [ 11.536483, 3.795726 ], [ 11.537044, 3.795952 ], [ 11.537159, 3.796197 ], [ 11.536953, 3.796621 ], [ 11.536661, 3.796804 ], [ 11.53665, 3.796993 ], [ 11.537448, 3.798263 ], [ 11.537741, 3.799224 ], [ 11.537735, 3.799733 ], [ 11.537973, 3.800216 ], [ 11.537781, 3.800683 ], [ 11.537777, 3.802452 ], [ 11.538523, 3.802878 ], [ 11.539093, 3.802725 ], [ 11.539181, 3.803124 ], [ 11.539768, 3.804007 ], [ 11.53998, 3.804818 ], [ 11.541238, 3.806268 ], [ 11.541778, 3.80769 ], [ 11.541996, 3.807812 ], [ 11.542104, 3.808243 ], [ 11.542259, 3.808225 ], [ 11.542147, 3.808535 ], [ 11.542607, 3.808763 ], [ 11.5425, 3.809104 ], [ 11.54256, 3.809427 ], [ 11.542951, 3.810056 ], [ 11.54301, 3.811056 ], [ 11.543441, 3.812019 ], [ 11.543789, 3.812147 ], [ 11.544524, 3.811845 ], [ 11.545631, 3.812912 ], [ 11.545722, 3.813163 ], [ 11.548363, 3.814278 ], [ 11.549359, 3.814825 ], [ 11.549916, 3.815414 ], [ 11.550384, 3.815691 ], [ 11.5525, 3.816371 ], [ 11.553097, 3.816352 ], [ 11.553681, 3.816538 ], [ 11.554, 3.817079 ], [ 11.555009, 3.817914 ], [ 11.555235, 3.818383 ], [ 11.555626, 3.818678 ], [ 11.555976, 3.819841 ], [ 11.555895, 3.82131 ], [ 11.556013, 3.82192 ], [ 11.555635, 3.822699 ], [ 11.555737, 3.823703 ], [ 11.555477, 3.824768 ], [ 11.555842, 3.826577 ], [ 11.555882, 3.826737 ], [ 11.556373, 3.827085 ], [ 11.556287, 3.827808 ], [ 11.556587, 3.828092 ], [ 11.557121, 3.82901 ], [ 11.55721, 3.829737 ], [ 11.557759, 3.830219 ], [ 11.558406, 3.831134 ], [ 11.55895, 3.831086 ], [ 11.559055, 3.831177 ], [ 11.559004, 3.831348 ], [ 11.559438, 3.83172 ], [ 11.560391, 3.832076 ], [ 11.560664, 3.832071 ], [ 11.561284, 3.831581 ], [ 11.561973, 3.831699 ], [ 11.562183, 3.831902 ], [ 11.56255, 3.831812 ], [ 11.563016, 3.832208 ], [ 11.56447, 3.832243 ], [ 11.565213, 3.832906 ], [ 11.565637, 3.833883 ], [ 11.565935, 3.833902 ], [ 11.566155, 3.834068 ], [ 11.566501, 3.834785 ], [ 11.567477, 3.835946 ], [ 11.567697, 3.836514 ], [ 11.567772, 3.836861 ], [ 11.567654, 3.837595 ], [ 11.567879, 3.837894 ], [ 11.568011, 3.838962 ], [ 11.567509, 3.84078 ], [ 11.567616, 3.842324 ], [ 11.567769, 3.84272 ], [ 11.567507, 3.843255 ], [ 11.567665, 3.843314 ], [ 11.567831, 3.84443 ], [ 11.567697, 3.846148 ], [ 11.568437, 3.846948 ], [ 11.568787, 3.846921 ], [ 11.569019, 3.847174 ], [ 11.568947, 3.847568 ], [ 11.569066, 3.848894 ], [ 11.569581, 3.849493 ], [ 11.569517, 3.850645 ], [ 11.570304, 3.851613 ], [ 11.570647, 3.852694 ], [ 11.57153, 3.854042 ], [ 11.571297, 3.854626 ], [ 11.571286, 3.855294 ], [ 11.571646, 3.857115 ], [ 11.572941, 3.860915 ], [ 11.572799, 3.864971 ], [ 11.57266, 3.865656 ], [ 11.572914, 3.86692 ], [ 11.572664, 3.868831 ], [ 11.573044, 3.870592 ], [ 11.572206, 3.871946 ], [ 11.571927, 3.872751 ], [ 11.57126, 3.873725 ], [ 11.571211, 3.874191 ], [ 11.570682, 3.875195 ], [ 11.570516, 3.876527 ], [ 11.570182, 3.877003 ], [ 11.56996, 3.876877 ], [ 11.56999, 3.87657 ], [ 11.56988, 3.876412 ], [ 11.569216, 3.87628 ], [ 11.569155, 3.876065 ], [ 11.568263, 3.875981 ], [ 11.567917, 3.875771 ], [ 11.56632, 3.876488 ], [ 11.56627, 3.876662 ], [ 11.565746, 3.877102 ], [ 11.565115, 3.877169 ], [ 11.564238, 3.876389 ], [ 11.563787, 3.876158 ], [ 11.56308, 3.876055 ], [ 11.562975, 3.875664 ], [ 11.562616, 3.875607 ], [ 11.562029, 3.875909 ], [ 11.561238, 3.875908 ], [ 11.561089, 3.876107 ], [ 11.560541, 3.876301 ], [ 11.560055, 3.876954 ], [ 11.55975, 3.877074 ], [ 11.559496, 3.876719 ], [ 11.559256, 3.876724 ], [ 11.559106, 3.87653 ], [ 11.558265, 3.876525 ], [ 11.557927, 3.87643 ], [ 11.557734, 3.876179 ], [ 11.557357, 3.876336 ], [ 11.557321, 3.87646 ], [ 11.556905, 3.876501 ], [ 11.556554, 3.876291 ], [ 11.556109, 3.876321 ], [ 11.555989, 3.876103 ], [ 11.555833, 3.876152 ], [ 11.555635, 3.876483 ], [ 11.555266, 3.876591 ], [ 11.555314, 3.876825 ], [ 11.555105, 3.877106 ], [ 11.554046, 3.877269 ], [ 11.553497, 3.876859 ], [ 11.553168, 3.876236 ], [ 11.55201, 3.874909 ], [ 11.551794, 3.874967 ], [ 11.551391, 3.874584 ], [ 11.550978, 3.874623 ], [ 11.549626, 3.873695 ], [ 11.549439, 3.873271 ], [ 11.549704, 3.872784 ], [ 11.549619, 3.872418 ], [ 11.549406, 3.872551 ], [ 11.548993, 3.873348 ], [ 11.548533, 3.873047 ], [ 11.548664, 3.872916 ], [ 11.548608, 3.872753 ], [ 11.547543, 3.87191 ], [ 11.54732, 3.871432 ], [ 11.546992, 3.871162 ], [ 11.546695, 3.871115 ], [ 11.546333, 3.870667 ], [ 11.545856, 3.870609 ], [ 11.545588, 3.870707 ], [ 11.545359, 3.870411 ], [ 11.545049, 3.870414 ], [ 11.543967, 3.869829 ], [ 11.543513, 3.869842 ], [ 11.542144, 3.870371 ], [ 11.541482, 3.87033 ], [ 11.539995, 3.869484 ], [ 11.539399, 3.868897 ], [ 11.538871, 3.86872 ], [ 11.536918, 3.867591 ], [ 11.536385, 3.867094 ], [ 11.536005, 3.866467 ], [ 11.535225, 3.865941 ], [ 11.535063, 3.865344 ], [ 11.535215, 3.864711 ], [ 11.534817, 3.864575 ], [ 11.533683, 3.863301 ], [ 11.532632, 3.862459 ], [ 11.532395, 3.862479 ], [ 11.531911, 3.862201 ], [ 11.531271, 3.861501 ], [ 11.530694, 3.861726 ], [ 11.529656, 3.861124 ], [ 11.528084, 3.860773 ], [ 11.52563, 3.860378 ], [ 11.524769, 3.860539 ], [ 11.52453, 3.859916 ], [ 11.524015, 3.859612 ], [ 11.523679, 3.859197 ], [ 11.522988, 3.858833 ], [ 11.522168, 3.858106 ], [ 11.521662, 3.857853 ], [ 11.521454, 3.857562 ], [ 11.521154, 3.857605 ], [ 11.521378, 3.854404 ], [ 11.521056, 3.853068 ], [ 11.520303, 3.852108 ], [ 11.519051, 3.851624 ], [ 11.517157, 3.850436 ], [ 11.515916, 3.849436 ], [ 11.515915, 3.848794 ], [ 11.516259, 3.847518 ], [ 11.516207, 3.847328 ], [ 11.513341, 3.841477 ], [ 11.512665, 3.838945 ], [ 11.513038, 3.837117 ], [ 11.51401, 3.834701 ], [ 11.514797, 3.833919 ], [ 11.515218, 3.834333 ], [ 11.516058, 3.834642 ], [ 11.516477, 3.834927 ], [ 11.516663, 3.835252 ], [ 11.516848, 3.835293 ], [ 11.516958, 3.835016 ], [ 11.517356, 3.834677 ], [ 11.517122, 3.833372 ], [ 11.517468, 3.833019 ], [ 11.517491, 3.832733 ], [ 11.51724, 3.832226 ], [ 11.516911, 3.832052 ], [ 11.51552, 3.83184 ], [ 11.515708, 3.831018 ], [ 11.514938, 3.830132 ], [ 11.514696, 3.830029 ], [ 11.512588, 3.830076 ], [ 11.512244, 3.829897 ], [ 11.511923, 3.829389 ], [ 11.511935, 3.828848 ], [ 11.512996, 3.827146 ], [ 11.513039, 3.826572 ], [ 11.511501, 3.824541 ], [ 11.511394, 3.824107 ], [ 11.512791, 3.821307 ], [ 11.51294, 3.820221 ], [ 11.512819, 3.819736 ], [ 11.511432, 3.816771 ], [ 11.511009, 3.815482 ], [ 11.510856, 3.815217 ], [ 11.509828, 3.814803 ], [ 11.509615, 3.814583 ], [ 11.509349, 3.81349 ], [ 11.508506, 3.811968 ], [ 11.508482, 3.811193 ], [ 11.509071, 3.810003 ], [ 11.509609, 3.809484 ], [ 11.510712, 3.809088 ], [ 11.511175, 3.807434 ], [ 11.511037, 3.806786 ], [ 11.509153, 3.802921 ], [ 11.509252, 3.801412 ], [ 11.503072, 3.79372 ], [ 11.501988, 3.793565 ], [ 11.501401, 3.793265 ], [ 11.499647, 3.793011 ], [ 11.499365, 3.79284 ], [ 11.498963, 3.791793 ], [ 11.498625, 3.791269 ], [ 11.498335, 3.791065 ], [ 11.498008, 3.790321 ], [ 11.497621, 3.789869 ], [ 11.496777, 3.78934 ], [ 11.496695, 3.789139 ], [ 11.496308, 3.789134 ], [ 11.495939, 3.788454 ], [ 11.495567, 3.788413 ], [ 11.495214, 3.788159 ], [ 11.494822, 3.787329 ], [ 11.494321, 3.786844 ], [ 11.493886, 3.786683 ], [ 11.493702, 3.786791 ], [ 11.493263, 3.786751 ], [ 11.493134, 3.785412 ], [ 11.493209, 3.785156 ], [ 11.49292, 3.784343 ], [ 11.492846, 3.783109 ], [ 11.491766, 3.782073 ], [ 11.491841, 3.78129 ], [ 11.491713, 3.78092 ], [ 11.491223, 3.780614 ], [ 11.489937, 3.780464 ], [ 11.489744, 3.780298 ], [ 11.489832, 3.779744 ], [ 11.489494, 3.779664 ], [ 11.489551, 3.779177 ], [ 11.48838, 3.778412 ], [ 11.488321, 3.777749 ], [ 11.488436, 3.777579 ], [ 11.488225, 3.777239 ], [ 11.488245, 3.776732 ], [ 11.487847, 3.77727 ], [ 11.487506, 3.777334 ], [ 11.487162, 3.77667 ] ] ] } },
{ "type": "Feature", "properties": { "nom": "Yaoundé V", "niveau": 8 }, "geometry": { "type": "Polygon", "coordinates": [ [ [ 11.520489, 3.861428 ], [ 11.521531, 3.86045 ], [ 11.521222, 3.860116 ], [ 11.521279, 3.859033 ], [ 11.521153, 3.857836 ], [ 11.521154, 3.857605 ], [ 11.521454, 3.857562 ], [ 11.521662, 3.857853 ], [ 11.522168, 3.858106 ], [ 11.52453, 3.859916 ], [ 11.524769, 3.860539 ], [ 11.52563, 3.860378 ], [ 11.528084, 3.860773 ], [ 11.529656, 3.861124 ], [ 11.530694, 3.861726 ], [ 11.531271, 3.861501 ], [ 11.531911, 3.862201 ], [ 11.532395, 3.862479 ], [ 11.532632, 3.862459 ], [ 11.533683, 3.863301 ], [ 11.534817, 3.864575 ], [ 11.535215, 3.864711 ], [ 11.535063, 3.865344 ], [ 11.535225, 3.865941 ], [ 11.536005, 3.866467 ], [ 11.536385, 3.867094 ], [ 11.537062, 3.867712 ], [ 11.538871, 3.86872 ], [ 11.539399, 3.868897 ], [ 11.539995, 3.869484 ], [ 11.541586, 3.870375 ], [ 11.542144, 3.870371 ], [ 11.543477, 3.869853 ], [ 11.54388, 3.869812 ], [ 11.545049, 3.870414 ], [ 11.545359, 3.870411 ], [ 11.545588, 3.870707 ], [ 11.545856, 3.870609 ], [ 11.546333, 3.870667 ], [ 11.546695, 3.871115 ], [ 11.546992, 3.871162 ], [ 11.54732, 3.871432 ], [ 11.547543, 3.87191 ], [ 11.548608, 3.872753 ], [ 11.548664, 3.872916 ], [ 11.548533, 3.873047 ], [ 11.548993, 3.873348 ], [ 11.549406, 3.872551 ], [ 11.549619, 3.872418 ], [ 11.549704, 3.872784 ], [ 11.549439, 3.873271 ], [ 11.549626, 3.873695 ], [ 11.550978, 3.874623 ], [ 11.551391, 3.874584 ], [ 11.551794, 3.874967 ], [ 11.55201, 3.874909 ], [ 11.553168, 3.876236 ], [ 11.553497, 3.876859 ], [ 11.554046, 3.877269 ], [ 11.555105, 3.877106 ], [ 11.555314, 3.876825 ], [ 11.555266, 3.876591 ], [ 11.555635, 3.876483 ], [ 11.555833, 3.876152 ], [ 11.555989, 3.876103 ], [ 11.556109, 3.876321 ], [ 11.556554, 3.876291 ], [ 11.556905, 3.876501 ], [ 11.557321, 3.87646 ], [ 11.557357, 3.876336 ], [ 11.557734, 3.876179 ], [ 11.557927, 3.87643 ], [ 11.558265, 3.876525 ], [ 11.559106, 3.87653 ], [ 11.559256, 3.876724 ], [ 11.559496, 3.876719 ], [ 11.55975, 3.877074 ], [ 11.560055, 3.876954 ], [ 11.560541, 3.876301 ], [ 11.561089, 3.876107 ], [ 11.561238, 3.875908 ], [ 11.562029, 3.875909 ], [ 11.562616, 3.875607 ], [ 11.562975, 3.875664 ], [ 11.56308, 3.876055 ], [ 11.563787, 3.876158 ], [ 11.564238, 3.876389 ], [ 11.565115, 3.877169 ], [ 11.565746, 3.877102 ], [ 11.56627, 3.876662 ], [ 11.56632, 3.876488 ], [ 11.567917, 3.875771 ], [ 11.568263, 3.875981 ], [ 11.569155, 3.876065 ], [ 11.569216, 3.87628 ], [ 11.569928, 3.876462 ], [ 11.56996, 3.876877 ], [ 11.570153, 3.876954 ], [ 11.570276, 3.877298 ], [ 11.570446, 3.878116 ], [ 11.570415, 3.878605 ], [ 11.570551, 3.878774 ], [ 11.570379, 3.879752 ], [ 11.57042, 3.8799 ], [ 11.570769, 3.87998 ], [ 11.570513, 3.880918 ], [ 11.570827, 3.88128 ], [ 11.571015, 3.882142 ], [ 11.571456, 3.882615 ], [ 11.571474, 3.883871 ], [ 11.571622, 3.884376 ], [ 11.571871, 3.884586 ], [ 11.57166, 3.885945 ], [ 11.572081, 3.886952 ], [ 11.571957, 3.887259 ], [ 11.571654, 3.88722 ], [ 11.571438, 3.887485 ], [ 11.571557, 3.8878 ], [ 11.571454, 3.888074 ], [ 11.571728, 3.888352 ], [ 11.571693, 3.88868 ], [ 11.571335, 3.889047 ], [ 11.57078, 3.889337 ], [ 11.570892, 3.890267 ], [ 11.570767, 3.890576 ], [ 11.570244, 3.890964 ], [ 11.569907, 3.891725 ], [ 11.569749, 3.893005 ], [ 11.569912, 3.893372 ], [ 11.569825, 3.89401 ], [ 11.570169, 3.894533 ], [ 11.570111, 3.894712 ], [ 11.569745, 3.894957 ], [ 11.5699, 3.895405 ], [ 11.569575, 3.896555 ], [ 11.569861, 3.897064 ], [ 11.569633, 3.898092 ], [ 11.570165, 3.899561 ], [ 11.570244, 3.900319 ], [ 11.570529, 3.900879 ], [ 11.57098, 3.901238 ], [ 11.571653, 3.901152 ], [ 11.572997, 3.902279 ], [ 11.572963, 3.902731 ], [ 11.573317, 3.902957 ], [ 11.57346, 3.903845 ], [ 11.573974, 3.904349 ], [ 11.573931, 3.904819 ], [ 11.573792, 3.905024 ], [ 11.573894, 3.905739 ], [ 11.573643, 3.906202 ], [ 11.574043, 3.906468 ], [ 11.573778, 3.906922 ], [ 11.573892, 3.907209 ], [ 11.573711, 3.907794 ], [ 11.57383, 3.908286 ], [ 11.573661, 3.908812 ], [ 11.573827, 3.909282 ], [ 11.573431, 3.90973 ], [ 11.57252, 3.910278 ], [ 11.572167, 3.910942 ], [ 11.57125, 3.910879 ], [ 11.569939, 3.912069 ], [ 11.569916, 3.912225 ], [ 11.570086, 3.912429 ], [ 11.570016, 3.912663 ], [ 11.569697, 3.913196 ], [ 11.569072, 3.913717 ], [ 11.569072, 3.913943 ], [ 11.569336, 3.914187 ], [ 11.569302, 3.914494 ], [ 11.569107, 3.914612 ], [ 11.568762, 3.915253 ], [ 11.568355, 3.915392 ], [ 11.567997, 3.915692 ], [ 11.568137, 3.915882 ], [ 11.568196, 3.916876 ], [ 11.568447, 3.91734 ], [ 11.567713, 3.917829 ], [ 11.567877, 3.918211 ], [ 11.567498, 3.918746 ], [ 11.567767, 3.918987 ], [ 11.567478, 3.919095 ], [ 11.567568, 3.919563 ], [ 11.567328, 3.919836 ], [ 11.567573, 3.920052 ], [ 11.567654, 3.920315 ], [ 11.56723, 3.921103 ], [ 11.566867, 3.921475 ], [ 11.566861, 3.921657 ], [ 11.565886, 3.92194 ], [ 11.566081, 3.92228 ], [ 11.566015, 3.922561 ], [ 11.565328, 3.923065 ], [ 11.565321, 3.923316 ], [ 11.565739, 3.923957 ], [ 11.565703, 3.924234 ], [ 11.567129, 3.925036 ], [ 11.566751, 3.925886 ], [ 11.566629, 3.926527 ], [ 11.566349, 3.926855 ], [ 11.566562, 3.927014 ], [ 11.566341, 3.928095 ], [ 11.568119, 3.92968 ], [ 11.568201, 3.930302 ], [ 11.568435, 3.930704 ], [ 11.568298, 3.931363 ], [ 11.568673, 3.932321 ], [ 11.568382, 3.932454 ], [ 11.568321, 3.932814 ], [ 11.567629, 3.932372 ], [ 11.56653, 3.932156 ], [ 11.565911, 3.931858 ], [ 11.56555, 3.932012 ], [ 11.56491, 3.931367 ], [ 11.564256, 3.931184 ], [ 11.562818, 3.930154 ], [ 11.562594, 3.930396 ], [ 11.562177, 3.930548 ], [ 11.561365, 3.930386 ], [ 11.560262, 3.930416 ], [ 11.559662, 3.930575 ], [ 11.559023, 3.930245 ], [ 11.558316, 3.930376 ], [ 11.557646, 3.930195 ], [ 11.555026, 3.930792 ], [ 11.554405, 3.930524 ], [ 11.553779, 3.929684 ], [ 11.553472, 3.929585 ], [ 11.55269, 3.929649 ], [ 11.55153, 3.930174 ], [ 11.55089, 3.930728 ], [ 11.549695, 3.932405 ], [ 11.548902, 3.932334 ], [ 11.547726, 3.931477 ], [ 11.547199, 3.93125 ], [ 11.546449, 3.93114 ], [ 11.543604, 3.931487 ], [ 11.54292, 3.93116 ], [ 11.542497, 3.930643 ], [ 11.542107, 3.929556 ], [ 11.541438, 3.926331 ], [ 11.539263, 3.923284 ], [ 11.539201, 3.922467 ], [ 11.538977, 3.922143 ], [ 11.538623, 3.922086 ], [ 11.538733, 3.916681 ], [ 11.539361, 3.913927 ], [ 11.539405, 3.912462 ], [ 11.538939, 3.910965 ], [ 11.537284, 3.908268 ], [ 11.536932, 3.907225 ], [ 11.536842, 3.905911 ], [ 11.537179, 3.903564 ], [ 11.537166, 3.902644 ], [ 11.535693, 3.896055 ], [ 11.534941, 3.894251 ], [ 11.533576, 3.89229 ], [ 11.532543, 3.890531 ], [ 11.531697, 3.885803 ], [ 11.531797, 3.884878 ], [ 11.531695, 3.884296 ], [ 11.532126, 3.880021 ], [ 11.531855, 3.878871 ], [ 11.530475, 3.876865 ], [ 11.528797, 3.875602 ], [ 11.52834, 3.875145 ], [ 11.527972, 3.874541 ], [ 11.525921, 3.869834 ], [ 11.525646, 3.866706 ], [ 11.525334, 3.866121 ], [ 11.525074, 3.866044 ], [ 11.524135, 3.863833 ], [ 11.523881, 3.863638 ], [ 11.522916, 3.863511 ], [ 11.521046, 3.861748 ], [ 11.520489, 3.861428 ] ] ] } },
{ "type": "Feature", "properties": { "nom": "Yaoundé VI", "niveau": 8 }, "geometry": { "type": "Polygon", "coordinates": [ [ [ 11.451742, 3.838882 ], [ 11.452962, 3.837829 ], [ 11.453466, 3.838172 ], [ 11.453426, 3.838831 ], [ 11.453656, 3.839094 ], [ 11.454647, 3.839096 ], [ 11.455106, 3.838912 ], [ 11.455162, 3.838637 ], [ 11.454901, 3.838134 ], [ 11.45528, 3.838111 ], [ 11.455407, 3.837771 ], [ 11.455001, 3.837411 ], [ 11.454813, 3.837424 ], [ 11.4547, 3.837058 ], [ 11.454809, 3.836983 ], [ 11.455075, 3.83713 ], [ 11.455112, 3.836965 ], [ 11.454358, 3.835792 ], [ 11.454445, 3.835437 ], [ 11.45423, 3.835439 ], [ 11.454397, 3.835203 ], [ 11.454764, 3.835406 ], [ 11.45476, 3.834996 ], [ 11.454395, 3.834841 ], [ 11.45435, 3.83471 ], [ 11.455111, 3.834289 ], [ 11.455209, 3.834042 ], [ 11.455068, 3.833816 ], [ 11.454527, 3.833486 ], [ 11.455004, 3.833231 ], [ 11.455417, 3.832606 ], [ 11.455741, 3.832432 ], [ 11.457292, 3.830633 ], [ 11.45843, 3.829741 ], [ 11.458854, 3.829603 ], [ 11.459084, 3.829175 ], [ 11.459307, 3.829318 ], [ 11.459611, 3.829181 ], [ 11.459539, 3.828804 ], [ 11.459808, 3.828657 ], [ 11.459921, 3.828433 ], [ 11.459605, 3.828284 ], [ 11.459911, 3.828069 ], [ 11.459752, 3.826961 ], [ 11.46052, 3.826074 ], [ 11.460366, 3.82547 ], [ 11.460577, 3.825428 ], [ 11.460842, 3.825579 ], [ 11.461222, 3.82541 ], [ 11.461427, 3.825482 ], [ 11.461626, 3.825832 ], [ 11.461765, 3.825837 ], [ 11.462127, 3.824888 ], [ 11.463052, 3.824483 ], [ 11.462762, 3.824027 ], [ 11.463061, 3.8237 ], [ 11.463093, 3.823118 ], [ 11.46389, 3.822355 ], [ 11.46388, 3.821699 ], [ 11.464117, 3.821267 ], [ 11.464023, 3.820451 ], [ 11.464144, 3.820391 ], [ 11.464546, 3.820715 ], [ 11.464885, 3.820288 ], [ 11.464739, 3.819822 ], [ 11.46457, 3.819834 ], [ 11.46445, 3.819687 ], [ 11.464324, 3.819167 ], [ 11.463883, 3.819176 ], [ 11.463079, 3.818824 ], [ 11.463526, 3.818428 ], [ 11.463189, 3.818062 ], [ 11.463292, 3.817643 ], [ 11.463016, 3.817587 ], [ 11.462959, 3.817464 ], [ 11.463574, 3.816911 ], [ 11.464678, 3.816935 ], [ 11.464805, 3.816437 ], [ 11.465457, 3.815677 ], [ 11.465927, 3.815335 ], [ 11.466192, 3.815337 ], [ 11.466258, 3.814955 ], [ 11.466819, 3.814544 ], [ 11.466914, 3.814161 ], [ 11.467342, 3.81348 ], [ 11.467459, 3.812864 ], [ 11.467018, 3.812258 ], [ 11.466971, 3.811758 ], [ 11.46678, 3.811587 ], [ 11.466983, 3.811184 ], [ 11.46723, 3.811033 ], [ 11.466963, 3.810612 ], [ 11.467168, 3.810263 ], [ 11.467128, 3.809845 ], [ 11.467472, 3.809178 ], [ 11.467483, 3.809042 ], [ 11.467045, 3.808568 ], [ 11.467646, 3.808196 ], [ 11.468048, 3.808201 ], [ 11.468286, 3.808053 ], [ 11.468547, 3.807586 ], [ 11.468347, 3.807384 ], [ 11.468117, 3.807368 ], [ 11.468153, 3.807027 ], [ 11.467847, 3.806065 ], [ 11.467235, 3.805425 ], [ 11.467356, 3.804994 ], [ 11.467575, 3.804798 ], [ 11.467193, 3.804539 ], [ 11.467432, 3.804387 ], [ 11.467716, 3.804512 ], [ 11.467711, 3.804201 ], [ 11.467965, 3.804103 ], [ 11.467986, 3.802666 ], [ 11.46831, 3.802568 ], [ 11.468505, 3.802275 ], [ 11.469015, 3.802017 ], [ 11.469026, 3.801845 ], [ 11.469587, 3.801632 ], [ 11.469824, 3.801372 ], [ 11.469675, 3.80047 ], [ 11.469821, 3.800235 ], [ 11.470416, 3.800137 ], [ 11.470539, 3.799629 ], [ 11.470779, 3.799548 ], [ 11.470787, 3.799381 ], [ 11.4705, 3.799405 ], [ 11.470451, 3.799296 ], [ 11.470762, 3.798867 ], [ 11.471473, 3.798637 ], [ 11.471591, 3.798412 ], [ 11.472184, 3.798136 ], [ 11.472462, 3.797758 ], [ 11.47262, 3.797308 ], [ 11.472111, 3.795388 ], [ 11.472021, 3.794681 ], [ 11.472164, 3.793927 ], [ 11.472011, 3.793556 ], [ 11.477988, 3.796114 ], [ 11.4794, 3.796905 ], [ 11.481095, 3.798071 ], [ 11.486759, 3.803011 ], [ 11.486527, 3.80338 ], [ 11.48671, 3.803828 ], [ 11.486709, 3.804561 ], [ 11.486548, 3.805053 ], [ 11.486097, 3.805114 ], [ 11.48594, 3.805266 ], [ 11.485987, 3.805662 ], [ 11.485522, 3.806739 ], [ 11.485278, 3.806939 ], [ 11.485444, 3.807706 ], [ 11.485691, 3.807793 ], [ 11.48597, 3.808371 ], [ 11.485573, 3.809056 ], [ 11.48538, 3.808997 ], [ 11.485214, 3.809121 ], [ 11.485387, 3.809523 ], [ 11.485204, 3.809609 ], [ 11.485172, 3.810344 ], [ 11.484847, 3.810564 ], [ 11.485257, 3.811409 ], [ 11.485005, 3.811568 ], [ 11.485047, 3.811941 ], [ 11.484697, 3.812078 ], [ 11.484471, 3.812421 ], [ 11.484305, 3.812448 ], [ 11.484371, 3.812706 ], [ 11.484149, 3.812677 ], [ 11.483949, 3.812929 ], [ 11.483663, 3.812906 ], [ 11.483543, 3.813018 ], [ 11.483393, 3.813709 ], [ 11.482586, 3.814967 ], [ 11.482754, 3.815114 ], [ 11.482634, 3.816108 ], [ 11.482014, 3.81675 ], [ 11.481767, 3.816779 ], [ 11.481528, 3.817662 ], [ 11.481311, 3.817876 ], [ 11.481373, 3.818147 ], [ 11.481064, 3.819003 ], [ 11.481094, 3.819488 ], [ 11.480865, 3.820209 ], [ 11.480376, 3.820589 ], [ 11.480048, 3.820606 ], [ 11.479397, 3.82121 ], [ 11.479251, 3.821623 ], [ 11.478307, 3.822095 ], [ 11.47789, 3.822656 ], [ 11.476603, 3.823713 ], [ 11.47638, 3.823701 ], [ 11.476193, 3.823893 ], [ 11.476166, 3.824109 ], [ 11.47573, 3.824684 ], [ 11.476066, 3.824927 ], [ 11.475753, 3.826075 ], [ 11.475282, 3.826826 ], [ 11.474948, 3.826937 ], [ 11.474683, 3.827207 ], [ 11.473445, 3.829394 ], [ 11.47322, 3.831179 ], [ 11.473731, 3.832108 ], [ 11.475677, 3.83311 ], [ 11.475947, 3.833055 ], [ 11.476327, 3.833211 ], [ 11.477585, 3.832872 ], [ 11.479146, 3.83268 ], [ 11.479724, 3.832736 ], [ 11.479978, 3.832885 ], [ 11.480671, 3.832866 ], [ 11.482105, 3.832047 ], [ 11.48266, 3.831445 ], [ 11.483465, 3.831202 ], [ 11.483957, 3.830601 ], [ 11.48422, 3.830031 ], [ 11.485153, 3.829022 ], [ 11.485204, 3.828719 ], [ 11.4861, 3.830049 ], [ 11.485845, 3.830595 ], [ 11.485947, 3.831493 ], [ 11.486244, 3.83146 ], [ 11.486655, 3.831634 ], [ 11.486773, 3.832362 ], [ 11.487707, 3.833188 ], [ 11.487916, 3.833623 ], [ 11.488161, 3.833831 ], [ 11.488163, 3.834062 ], [ 11.48852, 3.834441 ], [ 11.489181, 3.834631 ], [ 11.489624, 3.834911 ], [ 11.489997, 3.835431 ], [ 11.490232, 3.836147 ], [ 11.490498, 3.836267 ], [ 11.490739, 3.837328 ], [ 11.491047, 3.837919 ], [ 11.490941, 3.839391 ], [ 11.490626, 3.840376 ], [ 11.49132, 3.841068 ], [ 11.491676, 3.841741 ], [ 11.491986, 3.842011 ], [ 11.491974, 3.84336 ], [ 11.491847, 3.843818 ], [ 11.491325, 3.844729 ], [ 11.490903, 3.84505 ], [ 11.49055, 3.845581 ], [ 11.489681, 3.845906 ], [ 11.488864, 3.846385 ], [ 11.488751, 3.84664 ], [ 11.488306, 3.846983 ], [ 11.488107, 3.847553 ], [ 11.488227, 3.847911 ], [ 11.488229, 3.848789 ], [ 11.489081, 3.849972 ], [ 11.489843, 3.850599 ], [ 11.489659, 3.850924 ], [ 11.490278, 3.851229 ], [ 11.490129, 3.851566 ], [ 11.488814, 3.851907 ], [ 11.488037, 3.852406 ], [ 11.489551, 3.854634 ], [ 11.489971, 3.855092 ], [ 11.491582, 3.85622 ], [ 11.492532, 3.857338 ], [ 11.49319, 3.859348 ], [ 11.493388, 3.861484 ], [ 11.493875, 3.862562 ], [ 11.49419, 3.863001 ], [ 11.494942, 3.863627 ], [ 11.495471, 3.863859 ], [ 11.496554, 3.864019 ], [ 11.498822, 3.863578 ], [ 11.50035, 3.86303 ], [ 11.50406, 3.862427 ], [ 11.504457, 3.862906 ], [ 11.504551, 3.863332 ], [ 11.504105, 3.864485 ], [ 11.50407, 3.864965 ], [ 11.50476, 3.868024 ], [ 11.505011, 3.868389 ], [ 11.505662, 3.868677 ], [ 11.50823, 3.868505 ], [ 11.509986, 3.869073 ], [ 11.507901, 3.870042 ], [ 11.505723, 3.871789 ], [ 11.504835, 3.872189 ], [ 11.499709, 3.872968 ], [ 11.498348, 3.872772 ], [ 11.497553, 3.872368 ], [ 11.495021, 3.87159 ], [ 11.49462, 3.871567 ], [ 11.493302, 3.871988 ], [ 11.492717, 3.872019 ], [ 11.49008, 3.871586 ], [ 11.489493, 3.871638 ], [ 11.489234, 3.871372 ], [ 11.486316, 3.869991 ], [ 11.485229, 3.870046 ], [ 11.484986, 3.870139 ], [ 11.484738, 3.870455 ], [ 11.483513, 3.870946 ], [ 11.482615, 3.871068 ], [ 11.481568, 3.870722 ], [ 11.48094, 3.870934 ], [ 11.480449, 3.870817 ], [ 11.480028, 3.87127 ], [ 11.479671, 3.871022 ], [ 11.47896, 3.8708 ], [ 11.478465, 3.870878 ], [ 11.478241, 3.871111 ], [ 11.477902, 3.870962 ], [ 11.477781, 3.870695 ], [ 11.476802, 3.870901 ], [ 11.476693, 3.868623 ], [ 11.47571, 3.868416 ], [ 11.475421, 3.86794 ], [ 11.475607, 3.866916 ], [ 11.475404, 3.865691 ], [ 11.475069, 3.865337 ], [ 11.474808, 3.865262 ], [ 11.473174, 3.866205 ], [ 11.46917, 3.863437 ], [ 11.468962, 3.859303 ], [ 11.466321, 3.857172 ], [ 11.461329, 3.852208 ], [ 11.457435, 3.847402 ], [ 11.455276, 3.84164 ], [ 11.451892, 3.840453 ], [ 11.45197, 3.839189 ], [ 11.451742, 3.838882 ] ] ] } },
{ "type": "Feature", "properties": { "nom": "Yaoundé VII", "niveau": 8 }, "geometry": { "type": "Polygon", "coordinates": [ [ [ 11.411184, 3.878661 ], [ 11.412219, 3.876813 ], [ 11.412144, 3.876089 ], [ 11.411782, 3.874801 ], [ 11.411975, 3.873189 ], [ 11.412599, 3.871593 ], [ 11.412517, 3.870782 ], [ 11.413114, 3.870457 ], [ 11.413683, 3.869862 ], [ 11.413981, 3.869105 ], [ 11.414388, 3.867239 ], [ 11.415024, 3.866074 ], [ 11.416206, 3.865448 ], [ 11.416871, 3.864661 ], [ 11.418411, 3.86358 ], [ 11.419073, 3.86365 ], [ 11.419272, 3.863992 ], [ 11.419778, 3.863949 ], [ 11.420312, 3.864257 ], [ 11.420846, 3.863984 ], [ 11.421176, 3.863524 ], [ 11.421637, 3.863392 ], [ 11.421238, 3.862945 ], [ 11.421246, 3.862387 ], [ 11.421641, 3.861613 ], [ 11.421534, 3.861181 ], [ 11.422148, 3.861032 ], [ 11.423265, 3.859938 ], [ 11.423875, 3.859533 ], [ 11.424657, 3.860093 ], [ 11.425671, 3.858747 ], [ 11.426487, 3.858509 ], [ 11.426972, 3.855924 ], [ 11.427305, 3.855298 ], [ 11.428112, 3.854682 ], [ 11.428254, 3.854147 ], [ 11.429011, 3.853491 ], [ 11.42996, 3.853205 ], [ 11.430354, 3.852924 ], [ 11.431333, 3.852844 ], [ 11.432508, 3.85245 ], [ 11.433659, 3.85241 ], [ 11.434662, 3.852094 ], [ 11.435134, 3.851813 ], [ 11.435987, 3.851803 ], [ 11.43636, 3.851503 ], [ 11.436577, 3.850767 ], [ 11.437044, 3.85032 ], [ 11.437108, 3.849948 ], [ 11.43736, 3.849624 ], [ 11.437905, 3.849132 ], [ 11.438286, 3.849025 ], [ 11.438868, 3.848623 ], [ 11.439321, 3.848433 ], [ 11.439906, 3.848685 ], [ 11.440517, 3.848605 ], [ 11.442427, 3.847422 ], [ 11.443234, 3.847871 ], [ 11.443366, 3.847604 ], [ 11.443784, 3.847526 ], [ 11.443961, 3.847371 ], [ 11.443926, 3.847197 ], [ 11.444197, 3.847117 ], [ 11.444425, 3.846841 ], [ 11.44472, 3.846746 ], [ 11.445876, 3.846849 ], [ 11.446775, 3.846541 ], [ 11.447306, 3.845998 ], [ 11.447314, 3.845583 ], [ 11.447491, 3.845728 ], [ 11.447521, 3.845299 ], [ 11.447875, 3.844812 ], [ 11.44837, 3.844652 ], [ 11.448639, 3.843959 ], [ 11.449304, 3.843627 ], [ 11.449527, 3.843295 ], [ 11.449623, 3.842829 ], [ 11.449481, 3.842051 ], [ 11.449583, 3.841499 ], [ 11.449857, 3.841355 ], [ 11.450012, 3.841068 ], [ 11.450892, 3.840664 ], [ 11.451201, 3.840097 ], [ 11.450999, 3.839607 ], [ 11.451214, 3.839297 ], [ 11.451592, 3.839538 ], [ 11.451916, 3.839483 ], [ 11.451892, 3.840453 ], [ 11.455276, 3.84164 ], [ 11.457435, 3.847402 ], [ 11.461329, 3.852208 ], [ 11.466321, 3.857172 ], [ 11.468962, 3.859303 ], [ 11.46917, 3.863437 ], [ 11.473174, 3.866205 ], [ 11.474808, 3.865262 ], [ 11.475069, 3.865337 ], [ 11.475404, 3.865691 ], [ 11.475607, 3.866916 ], [ 11.475421, 3.86794 ], [ 11.475566, 3.868294 ], [ 11.476149, 3.868588 ], [ 11.476693, 3.868623 ], [ 11.476802, 3.870901 ], [ 11.477781, 3.870695 ], [ 11.477902, 3.870962 ], [ 11.478241, 3.871111 ], [ 11.478465, 3.870878 ], [ 11.47896, 3.8708 ], [ 11.479671, 3.871022 ], [ 11.480028, 3.87127 ], [ 11.480449, 3.870817 ], [ 11.48094, 3.870934 ], [ 11.481568, 3.870722 ], [ 11.482615, 3.871068 ], [ 11.48341, 3.870977 ], [ 11.483923, 3.870738 ], [ 11.484262, 3.871293 ], [ 11.484687, 3.874438 ], [ 11.48462, 3.875058 ], [ 11.484086, 3.875875 ], [ 11.483846, 3.876852 ], [ 11.483624, 3.877043 ], [ 11.483415, 3.878327 ], [ 11.482963, 3.878123 ], [ 11.482723, 3.878641 ], [ 11.482225, 3.87894 ], [ 11.482053, 3.879209 ], [ 11.482652, 3.87928 ], [ 11.482453, 3.880576 ], [ 11.482308, 3.880646 ], [ 11.481725, 3.881718 ], [ 11.481818, 3.882067 ], [ 11.48148, 3.882949 ], [ 11.480604, 3.883914 ], [ 11.480447, 3.885417 ], [ 11.479996, 3.887447 ], [ 11.478745, 3.888742 ], [ 11.478083, 3.889698 ], [ 11.477421, 3.89014 ], [ 11.475711, 3.890641 ], [ 11.474521, 3.89272 ], [ 11.474964, 3.894025 ], [ 11.474527, 3.893362 ], [ 11.47388, 3.893234 ], [ 11.47332, 3.893274 ], [ 11.472057, 3.89291 ], [ 11.471993, 3.893001 ], [ 11.470057, 3.898337 ], [ 11.469754, 3.899442 ], [ 11.469627, 3.90098 ], [ 11.468376, 3.903263 ], [ 11.468495, 3.904441 ], [ 11.468049, 3.905797 ], [ 11.467372, 3.906796 ], [ 11.467339, 3.907395 ], [ 11.467507, 3.907924 ], [ 11.46585, 3.909042 ], [ 11.462654, 3.909811 ], [ 11.460744, 3.909232 ], [ 11.458916, 3.907834 ], [ 11.458106, 3.906556 ], [ 11.454357, 3.905034 ], [ 11.452729, 3.904935 ], [ 11.451762, 3.904273 ], [ 11.448849, 3.903579 ], [ 11.447226, 3.90293 ], [ 11.446737, 3.901465 ], [ 11.446595, 3.899885 ], [ 11.443127, 3.900243 ], [ 11.442158, 3.900061 ], [ 11.441849, 3.899579 ], [ 11.440342, 3.899154 ], [ 11.438956, 3.897768 ], [ 11.43679, 3.895071 ], [ 11.436066, 3.894726 ], [ 11.434086, 3.894124 ], [ 11.43216, 3.893926 ], [ 11.430872, 3.891256 ], [ 11.430486, 3.890876 ], [ 11.430218, 3.890758 ], [ 11.428871, 3.890694 ], [ 11.427423, 3.890052 ], [ 11.425872, 3.889768 ], [ 11.425261, 3.889313 ], [ 11.424595, 3.888381 ], [ 11.423743, 3.886231 ], [ 11.423197, 3.885405 ], [ 11.422427, 3.885352 ], [ 11.420791, 3.886656 ], [ 11.419735, 3.886601 ], [ 11.416251, 3.882907 ], [ 11.411184, 3.878661 ] ] ] } }
]
}
